[{"OBJECT_NAME":"YAOGAN-35 03B","OBJECT_ID":"2022-088C","EPOCH":"2026-03-09T13:03:21.256992","MEAN_MOTION":15.23107662,"ECCENTRICITY":0.0013847,"INCLINATION":34.988,"RA_OF_ASC_NODE":116.4068,"ARG_OF_PERICENTER":202.6301,"MEAN_ANOMALY":157.3803,"EPHEMERIS_TYPE":0,"CLASSIFICATION_TYPE":"U","NORAD_CAT_ID":53318,"ELEMENT_SET_NO":999,"REV_AT_EPOCH":20113,"BSTAR":0.00044045,"MEAN_MOTION_DOT":0.00010651,"MEAN_MOTION_DDOT":0},{"OBJECT_NAME":"STARLINK-30287","OBJECT_ID":"2023-129M","EPOCH":"2026-03-09T03:42:02.676960","MEAN_MOTION":15.26742719,"ECCENTRICITY":0.00018099,"INCLINATION":43.0029,"RA_OF_ASC_NODE":120.6792,"ARG_OF_PERICENTER":270.9354,"MEAN_ANOMALY":89.129,"EPHEMERIS_TYPE":0,"CLASSIFICATION_TYPE":"U","NORAD_CAT_ID":57709,"ELEMENT_SET_NO":999,"REV_AT_EPOCH":14060,"BSTAR":2.6508797e-5,"MEAN_MOTION_DOT":4.51e-6,"MEAN_MOTION_DDOT":0}]
